[{"OBJECT_NAME":"MONITOR-4 (RS57S)","OBJECT_ID":"2023-091S","EPOCH":"2026-03-09T23:02:36.101184","MEAN_MOTION":15.25833519,"ECCENTRICITY":0.00137053,"INCLINATION":97.5193,"RA_OF_ASC_NODE":131.7407,"ARG_OF_PERICENTER":91.587,"MEAN_ANOMALY":268.6938,"EPHEMERIS_TYPE":0,"CLASSIFICATION_TYPE":"U","NORAD_CAT_ID":57182,"ELEMENT_SET_NO":999,"REV_AT_EPOCH":14915,"BSTAR":0.00052093098,"MEAN_MOTION_DOT":0.000133,"MEAN_MOTION_DDOT":0},{"OBJECT_NAME":"OBJECT D","OBJECT_ID":"2024-105D","EPOCH":"2026-03-10T00:24:43.734240","MEAN_MOTION":15.21426907,"ECCENTRICITY":0.00113854,"INCLINATION":97.5907,"RA_OF_ASC_NODE":87.0934,"ARG_OF_PERICENTER":197.271,"MEAN_ANOMALY":162.8139,"EPHEMERIS_TYPE":0,"CLASSIFICATION_TYPE":"U","NORAD_CAT_ID":59920,"ELEMENT_SET_NO":999,"REV_AT_EPOCH":9817,"BSTAR":0.0003392179,"MEAN_MOTION_DOT":7.559e-5,"MEAN_MOTION_DDOT":0}]
